{"type": "FeatureCollection", "features": [ {"type": "Feature", "properties": {"norad_id": 61183, "name": "GSAT0226 (GALILEO 31)", "group": "galileo", "lat": -35.089565745967526, "lon": 75.44992573139447, "alt_km": 23227.962690677286, "timestamp": "2025-12-19T08:58:49.601496+00:00", "meta": {"OBJECT_NAME": "GSAT0226 (GALILEO 31)", "OBJECT_ID": "2024-167B", "EPOCH": "2025-12-18T17:01:42.722400", "MEAN_MOTION": 1.70473755, "ECCENTRICITY": 0.00010459, "INCLINATION": 55.2376, "RA_OF_ASC_NODE": 226.2726, "ARG_OF_PERICENTER": 106.7871, "MEAN_ANOMALY": 69.7575, "EPHEMERIS_TYPE": 0, "CLASSIFICATION_TYPE": "U", "NORAD_CAT_ID": 61183, "ELEMENT_SET_NO": 999, "REV_AT_EPOCH": 777, "BSTAR": 0, "MEAN_MOTION_DOT": 6.4e-07, "MEAN_MOTION_DDOT": 0}, "tle": {"line1": "1 61183U 24167B   25352.70952225  .00000064  00000+0  00000+0 0  9996", "line2": "2 61183  55.2376 226.2726 0001045 106.7871  69.7575  1.70473755  7775"}}, "geometry": {"type": "Point", "coordinates": [75.44992573139447, -35.089565745967526]}}, {"type": "Feature", "properties": {"norad_id": 67160, "name": "GALILEO A", "group": "galileo", "lat": 34.616683533201105, "lon": 136.9930981572949, "alt_km": 22963.239466908857, "timestamp": "2025-12-19T08:58:49.601507+00:00", "meta": {"OBJECT_NAME": "GALILEO A", "OBJECT_ID": "2025-302A", "EPOCH": "2025-12-18T03:30:19.276416", "MEAN_MOTION": 1.72903353, "ECCENTRICITY": 0.00081342, "INCLINATION": 54.2386, "RA_OF_ASC_NODE": 107.2478, "ARG_OF_PERICENTER": 237.4124, "MEAN_ANOMALY": 122.4681, "EPHEMERIS_TYPE": 0, "CLASSIFICATION_TYPE": "U", "NORAD_CAT_ID": 67160, "ELEMENT_SET_NO": 999, "REV_AT_EPOCH": 2, "BSTAR": 0, "MEAN_MOTION_DOT": -7e-08, "MEAN_MOTION_DDOT": 0}, "tle": {"line1": "1 67160U 25302A   25352.14605644 -.00000007  00000+0  00000+0 0  9995", "line2": "2 67160  54.2386 107.2478 0008134 237.4124 122.4681  1.72903353    27"}}, "geometry": {"type": "Point", "coordinates": [136.9930981572949, 34.616683533201105]}}, {"type": "Feature", "properties": {"norad_id": 67161, "name": "GALILEO B", "group": "galileo", "lat": 34.96638479721584, "lon": 137.4123242224196, "alt_km": 22944.853888578804, "timestamp": "2025-12-19T08:58:49.601519+00:00", "meta": {"OBJECT_NAME": "GALILEO B", "OBJECT_ID": "2025-302B", "EPOCH": "2025-12-18T17:22:24.246336", "MEAN_MOTION": 1.72971576, "ECCENTRICITY": 0.00048165, "INCLINATION": 54.2288, "RA_OF_ASC_NODE": 107.2066, "ARG_OF_PERICENTER": 251.7259, "MEAN_ANOMALY": 108.1814, "EPHEMERIS_TYPE": 0, "CLASSIFICATION_TYPE": "U", "NORAD_CAT_ID": 67161, "ELEMENT_SET_NO": 999, "REV_AT_EPOCH": 4, "BSTAR": 0, "MEAN_MOTION_DOT": -6e-08, "MEAN_MOTION_DDOT": 0}, "tle": {"line1": "1 67161U 25302B   25352.72389174 -.00000006  00000+0  00000+0 0  9996", "line2": "2 67161  54.2288 107.2066 0004816 251.7259 108.1814  1.72971576    46"}}, "geometry": {"type": "Point", "coordinates": [137.4123242224196, 34.96638479721584]}}]}